start=new Date('2021-09-27T00:00:00.000Z').valueOf();
sats=[{"REF_FRAME":"TEME","LAUNCH_DATE":"2021-05-09","MEAN_MOTION":"15.14960079","MEAN_ELEMENT_THEORY":"SGP4","MEAN_MOTION_DDOT":"0.0000000000000","ARG_OF_PERICENTER":"45.1784","SITE":"AFETR","FILE":"3129566","APOAPSIS":"522.184","RA_OF_ASC_NODE":"250.2678","REV_AT_EPOCH":"362","GP_ID":"185583063","PERIAPSIS":"520.019","DECAY_DATE":null,"OBJECT_TYPE":"PAYLOAD","SEMIMAJOR_AXIS":"6899.237","OBJECT_NAME":"STARLINK-2749","TIME_SYSTEM":"UTC","ECCENTRICITY":"0.00015690","MEAN_ANOMALY":"300.3383","COUNTRY_CODE":"US","RCS_SIZE":"LARGE","CENTER_NAME":"EARTH","OBJECT_ID":"2021-040B","BSTAR":"-0.04726500000000","INCLINATION":"53.0449","EPOCH":"2021-09-27T00:00:00.999648","NORAD_CAT_ID":"48429","TLE_LINE2":"2 48429  53.0449 250.2678 0001569  45.1784 300.3383 15.14960079  3627","CLASSIFICATION_TYPE":"U","EPHEMERIS_TYPE":"0","PERIOD":"95.052","ELEMENT_SET_NO":"999","MEAN_MOTION_DOT":"-0.00832032","TLE_LINE1":"1 48429U 21040B   21270.00001157 -.00832032  00000-0 -47265-1 0  9995"},{"GP_ID":"185583603","REV_AT_EPOCH":"362","SITE":"AFETR","FILE":"3129566","RA_OF_ASC_NODE":"250.3440","APOAPSIS":"515.882","TIME_SYSTEM":"UTC","OBJECT_NAME":"STARLINK-2729","ECCENTRICITY":"0.00017190","PERIAPSIS":"513.512","OBJECT_TYPE":"PAYLOAD","SEMIMAJOR_AXIS":"6892.832","DECAY_DATE":null,"INCLINATION":"53.0515","CENTER_NAME":"EARTH","RCS_SIZE":"LARGE","COUNTRY_CODE":"US","MEAN_ANOMALY":"79.2469","BSTAR":"-0.04475600000000","OBJECT_ID":"2021-040C","MEAN_MOTION_DOT":"-0.00836648","ELEMENT_SET_NO":"999","TLE_LINE1":"1 48430U 21040C   21270.00001157 -.00836648  00000-0 -44756-1 0  9996","NORAD_CAT_ID":"48430","EPOCH":"2021-09-27T00:00:00.999648","PERIOD":"94.920","CLASSIFICATION_TYPE":"U","TLE_LINE2":"2 48430  53.0515 250.3440 0001719  44.9929  79.2469 15.17072213  3620","EPHEMERIS_TYPE":"0","REF_FRAME":"TEME","LAUNCH_DATE":"2021-05-09","MEAN_MOTION_DDOT":"0.0000000000000","MEAN_MOTION":"15.17072213","MEAN_ELEMENT_THEORY":"SGP4","ARG_OF_PERICENTER":"44.9929"},{"FILE":"3129566","SITE":"AFETR","RA_OF_ASC_NODE":"246.6517","APOAPSIS":"463.856","GP_ID":"185583495","REV_AT_EPOCH":"365","PERIAPSIS":"461.310","SEMIMAJOR_AXIS":"6840.718","OBJECT_TYPE":"PAYLOAD","DECAY_DATE":null,"TIME_SYSTEM":"UTC","OBJECT_NAME":"STARLINK-2700","ECCENTRICITY":"0.00018610","RCS_SIZE":"LARGE","CENTER_NAME":"EARTH","MEAN_ANOMALY":"60.9903","COUNTRY_CODE":"US","OBJECT_ID":"2021-040D","BSTAR":"-0.02703100000000","INCLINATION":"53.0475","NORAD_CAT_ID":"48431","EPOCH":"2021-09-27T00:00:00.999648","PERIOD":"93.845","CLASSIFICATION_TYPE":"U","TLE_LINE2":"2 48431  53.0475 246.6517 0001861  34.0025  60.9903 15.34441033  3656","EPHEMERIS_TYPE":"0","MEAN_MOTION_DOT":"-0.00844604","ELEMENT_SET_NO":"999","TLE_LINE1":"1 48431U 21040D   21270.00001157 -.00844604  00000-0 -27031-1 0  9995","REF_FRAME":"TEME","LAUNCH_DATE":"2021-05-09","MEAN_ELEMENT_THEORY":"SGP4","MEAN_MOTION":"15.34441033","MEAN_MOTION_DDOT":"0.0000000000000","ARG_OF_PERICENTER":"34.0025"},{"ARG_OF_PERICENTER":"85.6141","LAUNCH_DATE":"2021-05-09","REF_FRAME":"TEME","MEAN_ELEMENT_THEORY":"SGP4","MEAN_MOTION":"15.58723612","MEAN_MOTION_DDOT":"0.0000000000000","OBJECT_ID":"2021-040E","BSTAR":"0.00005838300000","CENTER_NAME":"EARTH","RCS_SIZE":"LARGE","COUNTRY_CODE":"US","MEAN_ANOMALY":"47.7872","INCLINATION":"53.0462","PERIOD":"92.383","TLE_LINE2":"2 48432  53.0462 244.3611 0001861  85.6141  47.7872 15.58723612  3676","CLASSIFICATION_TYPE":"U","EPHEMERIS_TYPE":"0","NORAD_CAT_ID":"48432","EPOCH":"2021-09-27T00:00:00.999648","TLE_LINE1":"1 48432U 21040E   21270.00001157  .00004074  00000-0  58383-4 0  9990","MEAN_MOTION_DOT":"0.00004074","ELEMENT_SET_NO":"999","RA_OF_ASC_NODE":"244.3611","APOAPSIS":"392.612","FILE":"3129566","SITE":"AFETR","GP_ID":"185583711","REV_AT_EPOCH":"367","SEMIMAJOR_AXIS":"6769.487","OBJECT_TYPE":"PAYLOAD","DECAY_DATE":null,"PERIAPSIS":"390.092","ECCENTRICITY":"0.00018610","OBJECT_NAME":"STARLINK-2680","TIME_SYSTEM":"UTC"},{"INCLINATION":"53.0469","RCS_SIZE":"LARGE","CENTER_NAME":"EARTH","COUNTRY_CODE":"US","MEAN_ANOMALY":"304.0848","BSTAR":"-0.02820800000000","OBJECT_ID":"2021-040F","MEAN_MOTION_DOT":"-0.00843944","ELEMENT_SET_NO":"999","TLE_LINE1":"1 48433U 21040F   21270.00001157 -.00843944  00000-0 -28208-1 0  9990","NORAD_CAT_ID":"48433","EPOCH":"2021-09-27T00:00:00.999648","PERIOD":"93.929","EPHEMERIS_TYPE":"0","TLE_LINE2":"2 48433  53.0469 246.6857 0001525  45.1224 304.0848 15.33078667  3657","CLASSIFICATION_TYPE":"U","GP_ID":"185583387","REV_AT_EPOCH":"365","FILE":"3129566","SITE":"AFETR","RA_OF_ASC_NODE":"246.6857","APOAPSIS":"467.679","OBJECT_NAME":"STARLINK-2699","TIME_SYSTEM":"UTC","ECCENTRICITY":"0.00015250","PERIAPSIS":"465.592","SEMIMAJOR_AXIS":"6844.770","OBJECT_TYPE":"PAYLOAD","DECAY_DATE":null,"ARG_OF_PERICENTER":"45.1224","REF_FRAME":"TEME","LAUNCH_DATE":"2021-05-09","MEAN_MOTION_DDOT":"0.0000000000000","MEAN_ELEMENT_THEORY":"SGP4","MEAN_MOTION":"15.33078667"},{"NORAD_CAT_ID":"48434","EPOCH":"2021-09-27T00:00:00.999648","PERIOD":"94.904","TLE_LINE2":"2 48434  53.0515 250.3520 0001785  44.9349  88.5390 15.17324899  3628","EPHEMERIS_TYPE":"0","CLASSIFICATION_TYPE":"U","MEAN_MOTION_DOT":"-0.00832886","ELEMENT_SET_NO":"999","TLE_LINE1":"1 48434U 21040G   21270.00001157 -.00832886  00000-0 -44217-1 0  9992","RCS_SIZE":"LARGE","CENTER_NAME":"EARTH","MEAN_ANOMALY":"88.5390","COUNTRY_CODE":"US","OBJECT_ID":"2021-040G","BSTAR":"-0.04421700000000","INCLINATION":"53.0515","PERIAPSIS":"512.701","OBJECT_TYPE":"PAYLOAD","SEMIMAJOR_AXIS":"6892.066","DECAY_DATE":null,"TIME_SYSTEM":"UTC","OBJECT_NAME":"STARLINK-2692","ECCENTRICITY":"0.00017850","SITE":"AFETR","FILE":"3129566","RA_OF_ASC_NODE":"250.3520","APOAPSIS":"515.162","GP_ID":"185583279","REV_AT_EPOCH":"362","ARG_OF_PERICENTER":"44.9349","MEAN_MOTION":"15.17324899","MEAN_ELEMENT_THEORY":"SGP4","MEAN_MOTION_DDOT":"0.0000000000000","REF_FRAME":"TEME","LAUNCH_DATE":"2021-05-09"},{"PERIOD":"95.696","TLE_LINE2":"2 48435  53.0520 259.5542 0001626  67.6237 292.4924 15.04770672 21935","EPHEMERIS_TYPE":"0","CLASSIFICATION_TYPE":"U","NORAD_CAT_ID":"48435","EPOCH":"2021-09-26T16:07:43.354848","TLE_LINE1":"1 48435U 21040H   21269.67202957 -.00000500  00000-0 -15600-4 0  9992","MEAN_MOTION_DOT":"-0.00000500","ELEMENT_SET_NO":"999","BSTAR":"-0.00001560000000","OBJECT_ID":"2021-040H","RCS_SIZE":"LARGE","CENTER_NAME":"EARTH","MEAN_ANOMALY":"292.4924","COUNTRY_CODE":"US","INCLINATION":"53.0520","OBJECT_TYPE":"PAYLOAD","SEMIMAJOR_AXIS":"6930.347","DECAY_DATE":null,"PERIAPSIS":"551.085","ECCENTRICITY":"0.00016260","OBJECT_NAME":"STARLINK-2633","TIME_SYSTEM":"UTC","RA_OF_ASC_NODE":"259.5542","APOAPSIS":"553.339","SITE":"AFETR","FILE":"3129566","GP_ID":"185583171","REV_AT_EPOCH":"2193","ARG_OF_PERICENTER":"67.6237","MEAN_MOTION":"15.04770672","MEAN_ELEMENT_THEORY":"SGP4","MEAN_MOTION_DDOT":"0.0000000000000","LAUNCH_DATE":"2021-05-09","REF_FRAME":"TEME"},{"ECCENTRICITY":"0.00010800","TIME_SYSTEM":"UTC","OBJECT_NAME":"STARLINK-2639","OBJECT_TYPE":"PAYLOAD","SEMIMAJOR_AXIS":"6925.316","DECAY_DATE":null,"PERIAPSIS":"546.433","GP_ID":"185583819","REV_AT_EPOCH":"2170","RA_OF_ASC_NODE":"276.3690","APOAPSIS":"547.929","SITE":"AFETR","FILE":"3129566","TLE_LINE1":"1 48436U 21040J   21269.72406110  .00001510  00000-0  12019-3 0  9996","MEAN_MOTION_DOT":"0.00001510","ELEMENT_SET_NO":"999","PERIOD":"95.591","TLE_LINE2":"2 48436  53.0541 276.3690 0001080  67.0872 293.0230 15.06410498 21704","EPHEMERIS_TYPE":"0","CLASSIFICATION_TYPE":"U","NORAD_CAT_ID":"48436","EPOCH":"2021-09-26T17:22:38.879040","INCLINATION":"53.0541","OBJECT_ID":"2021-040J","BSTAR":"0.00012019000000","RCS_SIZE":"LARGE","CENTER_NAME":"EARTH","MEAN_ANOMALY":"293.0230","COUNTRY_CODE":"US","MEAN_MOTION_DDOT":"0.0000000000000","MEAN_ELEMENT_THEORY":"SGP4","MEAN_MOTION":"15.06410498","LAUNCH_DATE":"2021-05-09","REF_FRAME":"TEME","ARG_OF_PERICENTER":"67.0872"},{"INCLINATION":"53.0548","RCS_SIZE":"MEDIUM","CENTER_NAME":"EARTH","MEAN_ANOMALY":"313.9158","COUNTRY_CODE":"US","OBJECT_ID":"2021-040K","BSTAR":"-0.00000999470000","MEAN_MOTION_DOT":"-0.00000419","ELEMENT_SET_NO":"999","TLE_LINE1":"1 48437U 21040K   21269.37769637 -.00000419  00000-0 -99947-5 0  9990","NORAD_CAT_ID":"48437","EPOCH":"2021-09-26T09:03:52.966368","PERIOD":"95.696","EPHEMERIS_TYPE":"0","TLE_LINE2":"2 48437  53.0548 287.5213 0000302  46.1855 313.9158 15.04769541 21527","CLASSIFICATION_TYPE":"U","GP_ID":"185553063","REV_AT_EPOCH":"2152","FILE":"3129258","SITE":"AFETR","RA_OF_ASC_NODE":"287.5213","APOAPSIS":"552.424","OBJECT_NAME":"STARLINK-2642","TIME_SYSTEM":"UTC","ECCENTRICITY":"0.00003020","PERIAPSIS":"552.006","SEMIMAJOR_AXIS":"6930.350","OBJECT_TYPE":"PAYLOAD","DECAY_DATE":null,"ARG_OF_PERICENTER":"46.1855","REF_FRAME":"TEME","LAUNCH_DATE":"2021-05-09","MEAN_MOTION_DDOT":"0.0000000000000","MEAN_ELEMENT_THEORY":"SGP4","MEAN_MOTION":"15.04769541"},{"TIME_SYSTEM":"UTC","OBJECT_NAME":"STARLINK-2640","ECCENTRICITY":"0.00010230","PERIAPSIS":"546.514","DECAY_DATE":null,"OBJECT_TYPE":"PAYLOAD","SEMIMAJOR_AXIS":"6925.357","REV_AT_EPOCH":"2170","GP_ID":"185583604","SITE":"AFETR","FILE":"3129566","APOAPSIS":"547.930","RA_OF_ASC_NODE":"276.3900","ELEMENT_SET_NO":"999","MEAN_MOTION_DOT":"0.00001551","TLE_LINE1":"1 48438U 21040L   21269.72036431  .00001551  00000-0  12302-3 0  9993","EPOCH":"2021-09-26T17:17:19.476384","NORAD_CAT_ID":"48438","CLASSIFICATION_TYPE":"U","TLE_LINE2":"2 48438  53.0548 276.3900 0001023  53.8506 306.2577 15.06397254 21706","EPHEMERIS_TYPE":"0","PERIOD":"95.592","INCLINATION":"53.0548","MEAN_ANOMALY":"306.2577","COUNTRY_CODE":"US","RCS_SIZE":"LARGE","CENTER_NAME":"EARTH","BSTAR":"0.00012302000000","OBJECT_ID":"2021-040L","MEAN_MOTION_DDOT":"0.0000000000000","MEAN_MOTION":"15.06397254","MEAN_ELEMENT_THEORY":"SGP4","REF_FRAME":"TEME","LAUNCH_DATE":"2021-05-09","ARG_OF_PERICENTER":"53.8506"}];
